[{"OBJECT_NAME":"STARLINK-32928","OBJECT_ID":"2025-075S","EPOCH":"2026-03-09T21:49:10.229088","MEAN_MOTION":15.27605346,"ECCENTRICITY":0.00021424,"INCLINATION":43.0003,"RA_OF_ASC_NODE":269.1595,"ARG_OF_PERICENTER":255.3172,"MEAN_ANOMALY":104.7443,"EPHEMERIS_TYPE":0,"CLASSIFICATION_TYPE":"U","NORAD_CAT_ID":63564,"ELEMENT_SET_NO":999,"REV_AT_EPOCH":5197,"BSTAR":0.0011865793,"MEAN_MOTION_DOT":0.0003256,"MEAN_MOTION_DDOT":0},{"OBJECT_NAME":"OBJECT F","OBJECT_ID":"2021-022F","EPOCH":"2026-03-09T23:37:37.165152","MEAN_MOTION":15.31317672,"ECCENTRICITY":0.00120882,"INCLINATION":97.3982,"RA_OF_ASC_NODE":329.8375,"ARG_OF_PERICENTER":85.9268,"MEAN_ANOMALY":274.3355,"EPHEMERIS_TYPE":0,"CLASSIFICATION_TYPE":"U","NORAD_CAT_ID":47937,"ELEMENT_SET_NO":999,"REV_AT_EPOCH":27452,"BSTAR":0.00038690553,"MEAN_MOTION_DOT":0.00011656,"MEAN_MOTION_DDOT":0}]
